{"type": "FeatureCollection", "features": [ {"type": "Feature", "properties": {"norad_id": 66519, "name": "STARLINK-35931", "group": "last-30-days", "lat": 20.8234628114222, "lon": 133.67269519041542, "alt_km": 342.0154199839135, "timestamp": "2025-12-03T08:58:44.777885+00:00", "meta": {"OBJECT_NAME": "STARLINK-35931", "OBJECT_ID": "2025-265D", "EPOCH": "2025-12-03T04:00:01.998720", "MEAN_MOTION": 15.7507681, "ECCENTRICITY": 0.0001801, "INCLINATION": 42.9998, "RA_OF_ASC_NODE": 110.8424, "ARG_OF_PERICENTER": 252.5593, "MEAN_ANOMALY": 41.2499, "EPHEMERIS_TYPE": 0, "CLASSIFICATION_TYPE": "U", "NORAD_CAT_ID": 66519, "ELEMENT_SET_NO": 999, "REV_AT_EPOCH": 345, "BSTAR": -5.9652e-05, "MEAN_MOTION_DOT": -9.646e-05, "MEAN_MOTION_DDOT": 0}, "tle": {"line1": "1 66519U 25265D   25337.16668980 -.00009646  00000+0 -59652-4 0  9998", "line2": "2 66519  42.9998 110.8424 0001801 252.5593  41.2499 15.75076810  3452"}}, "geometry": {"type": "Point", "coordinates": [133.67269519041542, 20.8234628114222]}}, {"type": "Feature", "properties": {"norad_id": 66520, "name": "STARLINK-35952", "group": "last-30-days", "lat": 22.012755143547736, "lon": 135.2916450697918, "alt_km": 341.6880315750732, "timestamp": "2025-12-03T08:58:44.777895+00:00", "meta": {"OBJECT_NAME": "STARLINK-35952", "OBJECT_ID": "2025-265E", "EPOCH": "2025-12-03T04:00:01.998720", "MEAN_MOTION": 15.75085576, "ECCENTRICITY": 0.0001776, "INCLINATION": 42.9996, "RA_OF_ASC_NODE": 110.8374, "ARG_OF_PERICENTER": 264.3579, "MEAN_ANOMALY": 31.3712, "EPHEMERIS_TYPE": 0, "CLASSIFICATION_TYPE": "U", "NORAD_CAT_ID": 66520, "ELEMENT_SET_NO": 999, "REV_AT_EPOCH": 345, "BSTAR": -0.00034849, "MEAN_MOTION_DOT": -0.00053779, "MEAN_MOTION_DDOT": 0}, "tle": {"line1": "1 66520U 25265E   25337.16668980 -.00053779  00000+0 -34849-3 0  9996", "line2": "2 66520  42.9996 110.8374 0001776 264.3579  31.3712 15.75085576  3459"}}, "geometry": {"type": "Point", "coordinates": [135.2916450697918, 22.012755143547736]}}, {"type": "Feature", "properties": {"norad_id": 66521, "name": "STARLINK-35915", "group": "last-30-days", "lat": 23.177106329228984, "lon": 136.92550913829993, "alt_km": 341.561091325927, "timestamp": "2025-12-03T08:58:44.777906+00:00", "meta": {"OBJECT_NAME": "STARLINK-35915", "OBJECT_ID": "2025-265F", "EPOCH": "2025-12-03T04:00:01.998720", "MEAN_MOTION": 15.75062348, "ECCENTRICITY": 0.0001819, "INCLINATION": 42.9996, "RA_OF_ASC_NODE": 110.8326, "ARG_OF_PERICENTER": 261.4372, "MEAN_ANOMALY": 36.204, "EPHEMERIS_TYPE": 0, "CLASSIFICATION_TYPE": "U", "NORAD_CAT_ID": 66521, "ELEMENT_SET_NO": 999, "REV_AT_EPOCH": 345, "BSTAR": 0.0002165, "MEAN_MOTION_DOT": 0.00032943, "MEAN_MOTION_DDOT": 0}, "tle": {"line1": "1 66521U 25265F   25337.16668980  .00032943  00000+0  21650-3 0  9991", "line2": "2 66521  42.9996 110.8326 0001819 261.4372  36.2040 15.75062348  3454"}}, "geometry": {"type": "Point", "coordinates": [136.92550913829993, 23.177106329228984]}}, {"type": "Feature", "properties": {"norad_id": 66522, "name": "STARLINK-35946", "group": "last-30-days", "lat": 24.3305378037506, "lon": 138.59747968859998, "alt_km": 341.44179327035636, "timestamp": "2025-12-03T08:58:44.777916+00:00", "meta": {"OBJECT_NAME": "STARLINK-35946", "OBJECT_ID": "2025-265G", "EPOCH": "2025-12-03T04:00:01.998720", "MEAN_MOTION": 15.75059001, "ECCENTRICITY": 0.0001788, "INCLINATION": 42.9996, "RA_OF_ASC_NODE": 110.828, "ARG_OF_PERICENTER": 258.9481, "MEAN_ANOMALY": 40.6156, "EPHEMERIS_TYPE": 0, "CLASSIFICATION_TYPE": "U", "NORAD_CAT_ID": 66522, "ELEMENT_SET_NO": 999, "REV_AT_EPOCH": 345, "BSTAR": 0.000184, "MEAN_MOTION_DOT": 0.00027905, "MEAN_MOTION_DDOT": 0}, "tle": {"line1": "1 66522U 25265G   25337.16668980  .00027905  00000+0  18400-3 0  9993", "line2": "2 66522  42.9996 110.8280 0001788 258.9481  40.6156 15.75059001  3450"}}, "geometry": {"type": "Point", "coordinates": [138.59747968859998, 24.3305378037506]}}, {"type": "Feature", "properties": {"norad_id": 66523, "name": "STARLINK-35969", "group": "last-30-days", "lat": 25.466022559794887, "lon": 140.30038484394532, "alt_km": 341.0664564343506, "timestamp": "2025-12-03T08:58:44.777926+00:00", "meta": {"OBJECT_NAME": "STARLINK-35969", "OBJECT_ID": "2025-265H", "EPOCH": "2025-12-03T04:00:01.998720", "MEAN_MOTION": 15.75059414, "ECCENTRICITY": 0.0001666, "INCLINATION": 42.9999, "RA_OF_ASC_NODE": 110.8229, "ARG_OF_PERICENTER": 272.1617, "MEAN_ANOMALY": 29.3237, "EPHEMERIS_TYPE": 0, "CLASSIFICATION_TYPE": "U", "NORAD_CAT_ID": 66523, "ELEMENT_SET_NO": 999, "REV_AT_EPOCH": 345, "BSTAR": -1.0601e-05, "MEAN_MOTION_DOT": -2.107e-05, "MEAN_MOTION_DDOT": 0}, "tle": {"line1": "1 66523U 25265H   25337.16668980 -.00002107  00000+0 -10601-4 0  9999", "line2": "2 66523  42.9999 110.8229 0001666 272.1617  29.3237 15.75059414  3453"}}, "geometry": {"type": "Point", "coordinates": [140.30038484394532, 25.466022559794887]}}, {"type": "Feature", "properties": {"norad_id": 66524, "name": "STARLINK-35687", "group": "last-30-days", "lat": 26.57920867274519, "lon": 142.0325629387812, "alt_km": 341.0588603678989, "timestamp": "2025-12-03T08:58:44.777936+00:00", "meta": {"OBJECT_NAME": "STARLINK-35687", "OBJECT_ID": "2025-265J", "EPOCH": "2025-12-03T04:00:01.998720", "MEAN_MOTION": 15.75061352, "ECCENTRICITY": 0.0001688, "INCLINATION": 42.9998, "RA_OF_ASC_NODE": 110.8178, "ARG_OF_PERICENTER": 261.4135, "MEAN_ANOMALY": 41.9864, "EPHEMERIS_TYPE": 0, "CLASSIFICATION_TYPE": "U", "NORAD_CAT_ID": 66524, "ELEMENT_SET_NO": 999, "REV_AT_EPOCH": 345, "BSTAR": 7.9532e-05, "MEAN_MOTION_DOT": 0.00011768, "MEAN_MOTION_DDOT": 0}, "tle": {"line1": "1 66524U 25265J   25337.16668980  .00011768  00000+0  79532-4 0  9999", "line2": "2 66524  42.9998 110.8178 0001688 261.4135  41.9864 15.75061352  3456"}}, "geometry": {"type": "Point", "coordinates": [142.0325629387812, 26.57920867274519]}}, {"type": "Feature", "properties": {"norad_id": 66525, "name": "STARLINK-35975", "group": "last-30-days", "lat": 27.67090096455622, "lon": 143.79932266788225, "alt_km": 340.99034310788556, "timestamp": "2025-12-03T08:58:44.777948+00:00", "meta": {"OBJECT_NAME": "STARLINK-35975", "OBJECT_ID": "2025-265K", "EPOCH": "2025-12-03T04:00:01.998720", "MEAN_MOTION": 15.75062225, "ECCENTRICITY": 0.0001772, "INCLINATION": 42.9997, "RA_OF_ASC_NODE": 110.8135, "ARG_OF_PERICENTER": 258.1739, "MEAN_ANOMALY": 47.1417, "EPHEMERIS_TYPE": 0, "CLASSIFICATION_TYPE": "U", "NORAD_CAT_ID": 66525, "ELEMENT_SET_NO": 999, "REV_AT_EPOCH": 345, "BSTAR": 7.087e-05, "MEAN_MOTION_DOT": 0.00010433, "MEAN_MOTION_DDOT": 0}, "tle": {"line1": "1 66525U 25265K   25337.16668980  .00010433  00000+0  70870-4 0  9994", "line2": "2 66525  42.9997 110.8135 0001772 258.1739  47.1417 15.75062225  3458"}}, "geometry": {"type": "Point", "coordinates": [143.79932266788225, 27.67090096455622]}}, {"type": "Feature", "properties": {"norad_id": 66526, "name": "STARLINK-35932", "group": "last-30-days", "lat": 28.677089003622047, "lon": 145.49345258585635, "alt_km": 341.0047061779551, "timestamp": "2025-12-03T08:58:44.777961+00:00", "meta": {"OBJECT_NAME": "STARLINK-35932", "OBJECT_ID": "2025-265L", "EPOCH": "2025-12-03T04:00:01.998720", "MEAN_MOTION": 15.74853995, "ECCENTRICITY": 0.0002233, "INCLINATION": 42.9997, "RA_OF_ASC_NODE": 110.8089, "ARG_OF_PERICENTER": 277.4239, "MEAN_ANOMALY": 29.7964, "EPHEMERIS_TYPE": 0, "CLASSIFICATION_TYPE": "U", "NORAD_CAT_ID": 66526, "ELEMENT_SET_NO": 999, "REV_AT_EPOCH": 334, "BSTAR": 0.0019762, "MEAN_MOTION_DOT": 0.00312065, "MEAN_MOTION_DDOT": 0}, "tle": {"line1": "1 66526U 25265L   25337.16668980  .00312065  00000+0  19762-2 0  9992", "line2": "2 66526  42.9997 110.8089 0002233 277.4239  29.7964 15.74853995  3341"}}, "geometry": {"type": "Point", "coordinates": [145.49345258585635, 28.677089003622047]}}, {"type": "Feature", "properties": {"norad_id": 66527, "name": "STARLINK-35935", "group": "last-30-days", "lat": 29.77488079456487, "lon": 147.4233480358313, "alt_km": 340.497449929554, "timestamp": "2025-12-03T08:58:44.777972+00:00", "meta": {"OBJECT_NAME": "STARLINK-35935", "OBJECT_ID": "2025-265M", "EPOCH": "2025-12-03T04:00:01.998720", "MEAN_MOTION": 15.75098895, "ECCENTRICITY": 0.0001168, "INCLINATION": 42.9997, "RA_OF_ASC_NODE": 110.8042, "ARG_OF_PERICENTER": 267.9611, "MEAN_ANOMALY": 41.1872, "EPHEMERIS_TYPE": 0, "CLASSIFICATION_TYPE": "U", "NORAD_CAT_ID": 66527, "ELEMENT_SET_NO": 999, "REV_AT_EPOCH": 345, "BSTAR": -0.001765, "MEAN_MOTION_DOT": -0.00263964, "MEAN_MOTION_DDOT": 0}, "tle": {"line1": "1 66527U 25265M   25337.16668980 -.00263964  00000+0 -17650-2 0  9992", "line2": "2 66527  42.9997 110.8042 0001168 267.9611  41.1872 15.75098895  3454"}}, "geometry": {"type": "Point", "coordinates": [147.4233480358313, 29.77488079456487]}}, {"type": "Feature", "properties": {"norad_id": 66528, "name": "STARLINK-35928", "group": "last-30-days", "lat": 30.751181381279658, "lon": 149.22028668050146, "alt_km": 340.43142222991355, "timestamp": "2025-12-03T08:58:44.777985+00:00", "meta": {"OBJECT_NAME": "STARLINK-35928", "OBJECT_ID": "2025-265N", "EPOCH": "2025-12-03T04:00:01.998720", "MEAN_MOTION": 15.74981733, "ECCENTRICITY": 0.0001688, "INCLINATION": 42.9999, "RA_OF_ASC_NODE": 110.7997, "ARG_OF_PERICENTER": 268.0344, "MEAN_ANOMALY": 42.9647, "EPHEMERIS_TYPE": 0, "CLASSIFICATION_TYPE": "U", "NORAD_CAT_ID": 66528, "ELEMENT_SET_NO": 999, "REV_AT_EPOCH": 345, "BSTAR": 0.0011213, "MEAN_MOTION_DOT": 0.0017494, "MEAN_MOTION_DDOT": 0}, "tle": {"line1": "1 66528U 25265N   25337.16668980  .00174940  00000+0  11213-2 0  9995", "line2": "2 66528  42.9999 110.7997 0001688 268.0344  42.9647 15.74981733  3457"}}, "geometry": {"type": "Point", "coordinates": [149.22028668050146, 30.751181381279658]}}]}